State,University Name,City,ZIP Code,Enrollment (approx.),Notes (Accessibility, Taxes, etc.)
AL,University of Alabama,Tuscaloosa,35487,"38,000","Tuscaloosa County commercial property tax ~0.33%. Accessible via I-20/59. Public transit available."
AL,Auburn University,Auburn,36849,"30,000","Lee County commercial property tax ~0.32%. Accessible via I-85. Local transit available."
AL,University of Alabama at Birmingham (UAB),Birmingham,35294,"22,000","Jefferson County commercial property tax ~0.56%. Major transportation hub (I-20, I-59, I-65). Public transit available."
AL,University of Alabama in Huntsville (UAH),Huntsville,35899,"9,000","Madison County commercial property tax ~0.40%. Accessible via I-565. Public transit available."
AL,University of South Alabama,Mobile,36688,"14,000","Mobile County commercial property tax ~0.47%. Accessible via I-10, I-65. Public transit available."
AL,Alabama State University,Montgomery,36104,"4,000","Montgomery County commercial property tax ~0.45%. Accessible via I-65, I-85. Public transit available."
AL,Alabama A&M University,Normal,35762,"6,000","Madison County commercial property tax ~0.40%. Accessible via I-565. Public transit available."
AL,Troy University,Troy,36082,"16,000","Pike County commercial property tax ~0.41%. Accessible via US Hwys 231 & 29. Limited public transit."
AL,Jacksonville State University,Jacksonville,36265,"9,000","Calhoun County commercial property tax ~0.50%. Accessible via US Hwy 431. Limited public transit."
AL,University of West Alabama,Livingston,35470,"2,500","Sumter County commercial property tax ~0.43%. Accessible via I-20/59. Limited public transit."
AL,University of Montevallo,Montevallo,35115,"2,500","Shelby County commercial property tax ~0.46%. Accessible via I-65. Limited public transit."
AL,Athens State University,Athens,35611,"3,500","Limestone County commercial property tax ~0.42%. Accessible via I-65. Limited public transit."
AZ,University of Arizona,Tucson,85721,"49,000","Pima County commercial property tax ~1.0%. Accessible via Sun Link streetcar. Public transit available."
AZ,Northern Arizona University,Flagstaff,86011,"29,000","Coconino County commercial property tax ~0.7%. Accessible via Mountain Line transit. Limited highway access."
AR,University of Arkansas,Fayetteville,72701,"29,000","Washington County commercial property tax ~0.9%. Accessible via Ozark Regional Transit."
AR,Arkansas State University,Jonesboro,72401,"13,000","Craighead County commercial property tax ~0.8%. Accessible via Jonesboro Economic Transit System (JETS)."
AR,University of Central Arkansas,Conway,72035,"10,000","Faulkner County commercial property tax ~0.7%. Limited public transit."
AR,University of Arkansas at Little Rock,Little Rock,72204,"9,000","Pulaski County commercial property tax ~1.1%. Accessible via Rock Region METRO."
AR,Arkansas Tech University,Russellville,72801,"9,000","Pope County commercial property tax ~0.6%. Limited public transit."
AR,Henderson State University,Arkadelphia,71999,"3,000","Clark County commercial property tax ~0.7%. Limited public transit."
AR,Southern Arkansas University,Magnolia,71753,"4,000","Columbia County commercial property tax ~0.6%. Limited public transit."
AR,University of Arkansas at Pine Bluff,Pine Bluff,71601,"2,500","Jefferson County commercial property tax ~0.9%. Limited public transit."
AR,University of Arkansas at Monticello,Monticello,71656,"3,000","Drew County commercial property tax ~0.7%. Limited public transit."
AR,University of Arkansas Fort Smith,Fort Smith,72903,"6,000","Sebastian County commercial property tax ~0.8%. Accessible via Fort Smith Transit."
CA,University of California, Berkeley,Berkeley,94720,"45,000","Alameda County commercial property tax ~1.1%. Accessible via BART."
CA,University of California, Davis,Davis,95616,"40,000","Yolo County commercial property tax ~1.1%. Accessible via Amtrak, Unitrans."
CA,University of California, Irvine,Irvine,92697,"37,000","Orange County commercial property tax ~1.0%. Accessible via OCTA."
CA,University of California, Los Angeles,Los Angeles,90095,"46,000","Los Angeles County commercial property tax ~1.2%. Accessible via LA Metro."
CA,University of California, Merced,Merced,95343,"9,000","Merced County commercial property tax ~1.1%. Accessible via The Bus."
CA,University of California, Riverside,Riverside,92521,"27,000","Riverside County commercial property tax ~1.1%. Accessible via RTA."
CA,University of California, San Diego,San Diego,92093,"42,000","San Diego County commercial property tax ~1.1%. Accessible via MTS Trolley."
CA,University of California, San Francisco,San Francisco,94143,"3,000","San Francisco County commercial property tax ~1.2%. Accessible via Muni Metro. (Primarily graduate/professional)."
CA,University of California, Santa Barbara,Santa Barbara,93106,"26,000","Santa Barbara County commercial property tax ~1.1%. Accessible via MTD."
CA,University of California, Santa Cruz,Santa Cruz,95064,"19,000","Santa Cruz County commercial property tax ~1.1%. Accessible via Santa Cruz METRO."
CA,California State University, Bakersfield,Bakersfield,93311,"11,000","Kern County commercial property tax ~1.1%. Accessible via Golden Empire Transit."
CA,California State University, Channel Islands,Camarillo,93012,"7,000","Ventura County commercial property tax ~1.1%. Accessible via VCTC."
CA,California State University, Chico,Chico,95929,"16,000","Butte County commercial property tax ~1.0%. Accessible via B-Line."
CA,California State University, Dominguez Hills,Carson,90747,"17,000","Los Angeles County commercial property tax ~1.2%. Accessible via LA Metro."
CA,California State University, East Bay,Hayward,94542,"15,000","Alameda County commercial property tax ~1.1%. Accessible via AC Transit, BART."
CA,California State University, Fresno,Fresno,93740,"25,000","Fresno County commercial property tax ~1.2%. Accessible via FAX."
CA,California State University, Fullerton,Fullerton,92831,"40,000","Orange County commercial property tax ~1.0%. Accessible via OCTA."
CA,California State University, Long Beach,Long Beach,90840,"39,000","Los Angeles County commercial property tax ~1.2%. Accessible via Long Beach Transit."
CA,California State University, Los Angeles,Los Angeles,90032,"27,000","Los Angeles County commercial property tax ~1.2%. Accessible via LA Metro."
CA,California State University, Maritime Academy,Vallejo,94590,"1,000","Solano County commercial property tax ~1.2%. Specialized focus."
CA,California State University, Monterey Bay,Seaside,93955,"7,000","Monterey County commercial property tax ~1.0%. Accessible via MST."
CA,California State University, Northridge,Northridge,91330,"39,000","Los Angeles County commercial property tax ~1.2%. Accessible via LA Metro."
CA,California State University, Sacramento,Sacramento,95819,"31,000","Sacramento County commercial property tax ~1.2%. Accessible via SacRT Light Rail."
CA,California State University, San Bernardino,San Bernardino,92407,"20,000","San Bernardino County commercial property tax ~1.1%. Accessible via Omnitrans."
CA,California State University, San Marcos,San Marcos,92096,"16,000","San Diego County commercial property tax ~1.1%. Accessible via NCTD Sprinter."
CA,California State University, Stanislaus,Turlock,95382,"10,000","Stanislaus County commercial property tax ~1.1%. Accessible via The Bus."
CA,San Diego State University,San Diego,92182,"36,000","San Diego County commercial property tax ~1.1%. Accessible via MTS Trolley."
CA,San Francisco State University,San Francisco,94132,"29,000","San Francisco County commercial property tax ~1.2%. Accessible via Muni Metro."
CA,San José State University,San José,95192,"35,000","Santa Clara County commercial property tax ~1.0%. Accessible via VTA Light Rail."
CA,California Polytechnic State University, San Luis Obispo,San Luis Obispo,93407,"22,000","San Luis Obispo County commercial property tax ~1.0%. Accessible via SLORTA."
CA,California State Polytechnic University, Pomona,Pomona,91768,"29,000","Los Angeles County commercial property tax ~1.2%. Accessible via Foothill Transit."
CA,Sonoma State University,Rohnert Park,94928,"9,000","Sonoma County commercial property tax ~1.1%. Accessible via Sonoma County Transit."
CA,Humboldt State University,Arcata,95521,"7,000","Humboldt County commercial property tax ~1.0%. Accessible via A&MRTS."
CO,University of Colorado Boulder,Boulder,80309,"37,000","Boulder County commercial property tax ~1.3%. Accessible via RTD."
CO,University of Colorado Colorado Springs,Colorado Springs,80918,"12,000","El Paso County commercial property tax ~1.3%. Accessible via Mountain Metro."
CO,University of Colorado Denver,Denver,80204,"15,000","Denver County commercial property tax ~1.3%. Accessible via RTD Light Rail."
CO,Colorado State University,Fort Collins,80523,"34,000","Larimer County commercial property tax ~1.2%. Accessible via Transfort."
CO,Metropolitan State University of Denver,Denver,80204,"19,000","Denver County commercial property tax ~1.3%. Accessible via RTD Light Rail."
CO,University of Northern Colorado,Greeley,80639,"11,000","Weld County commercial property tax ~1.2%. Accessible via GET."
CO,Colorado School of Mines,Golden,80401,"7,000","Jefferson County commercial property tax ~1.2%. Accessible via RTD."
CO,Fort Lewis College,Durango,81301,"3,500","La Plata County commercial property tax ~0.8%. Accessible via Durango Transit."
CO,Western Colorado University,Gunnison,81231,"3,000","Gunnison County commercial property tax ~0.8%. Accessible via RTA."
CO,Adams State University,Alamosa,81101,"3,000","Alamosa County commercial property tax ~0.9%. Limited public transit."
CO,Colorado Mesa University,Grand Junction,81501,"11,000","Mesa County commercial property tax ~0.9%. Accessible via GVT."
CO,CSU Pueblo,Pueblo,81001,"4,000","Pueblo County commercial property tax ~1.0%. Accessible via Pueblo Transit."
CT,University of Connecticut,Storrs,06269,"27,000","Tolland County commercial property tax ~2.0%. Accessible via CTtransit."
CT,Central Connecticut State University,New Britain,06050,"11,000","Hartford County commercial property tax ~2.5%. Accessible via CTfastrak."
CT,Southern Connecticut State University,New Haven,06515,"9,000","New Haven County commercial property tax ~2.8%. Accessible via CTtransit."
CT,Eastern Connecticut State University,Willimantic,06226,"5,000","Windham County commercial property tax ~2.2%. Accessible via WRTD."
CT,Western Connecticut State University,Danbury,06810,"5,000","Fairfield County commercial property tax ~2.0%. Accessible via HARTransit."
DE,University of Delaware,Newark,19716,"24,000","New Castle County commercial property tax ~0.8%. Accessible via SEPTA, DART."
DE,Delaware State University,Dover,19901,"5,000","Kent County commercial property tax ~0.7%. Accessible via DART."
FL,University of Florida,Gainesville,32611,"55,000","Alachua County commercial property tax ~1.5%. Accessible via RTS."
FL,Florida State University,Tallahassee,32306,"44,000","Leon County commercial property tax ~1.5%. Accessible via StarMetro."
FL,University of Central Florida,Orlando,32816,"70,000","Orange County commercial property tax ~1.4%. Accessible via LYNX."
FL,University of South Florida,Tampa,33620,"50,000","Hillsborough County commercial property tax ~1.6%. Accessible via HART."
FL,Florida International University,Miami,33199,"58,000","Miami-Dade County commercial property tax ~1.8%. Accessible via Miami-Dade Transit."
FL,University of North Florida,Jacksonville,32224,"17,000","Duval County commercial property tax ~1.4%. Accessible via JTA."
FL,Florida Atlantic University,Boca Raton,33431,"30,000","Palm Beach County commercial property tax ~1.5%. Accessible via Palm Tran."
FL,Florida A&M University,Tallahassee,32307,"10,000","Leon County commercial property tax ~1.5%. Accessible via StarMetro."
FL,University of West Florida,Pensacola,32514,"13,000","Escambia County commercial property tax ~1.3%. Accessible via ECAT."
FL,Florida Gulf Coast University,Fort Myers,33965,"15,000","Lee County commercial property tax ~1.4%. Accessible via LeeTran."
FL,New College of Florida,Sarasota,34243,"700","Sarasota County commercial property tax ~1.3%. Accessible via SCAT."
FL,Florida Polytechnic University,Lakeland,33805,"1,500","Polk County commercial property tax ~1.5%. Accessible via Citrus Connection."
GA,University of Georgia,Athens,30602,"40,000","Clarke County commercial property tax ~1.4%. Accessible via Athens-Clarke County Transit."
GA,Georgia Institute of Technology,Atlanta,30332,"44,000","Fulton County commercial property tax ~1.5%. Accessible via MARTA."
GA,Georgia State University,Atlanta,30303,"53,000","Fulton County commercial property tax ~1.5%. Accessible via MARTA."
GA,Kennesaw State University,Kennesaw,30144,"43,000","Cobb County commercial property tax ~1.3%. Accessible via CobbLinc."
GA,Georgia Southern University,Statesboro,30460,"27,000","Bulloch County commercial property tax ~1.2%. Accessible via Statesboro Area Transit."
GA,Augusta University,Augusta,30912,"9,000","Richmond County commercial property tax ~1.4%. Accessible via Augusta Transit."
GA,University of West Georgia,Carrollton,30118,"13,000","Carroll County commercial property tax ~1.2%. Limited public transit."
GA,Valdosta State University,Valdosta,31698,"12,000","Lowndes County commercial property tax ~1.3%. Accessible via VLPRA."
GA,University of North Georgia,Dahlonega,30597,"19,000","Lumpkin County commercial property tax ~1.1%. Limited public transit."
GA,Columbus State University,Columbus,31907,"8,000","Muscogee County commercial property tax ~1.4%. Accessible via METRA."
GA,Georgia College & State University,Milledgeville,31061,"7,000","Baldwin County commercial property tax ~1.2%. Limited public transit."
GA,Savannah State University,Savannah,31404,"3,500","Chatham County commercial property tax ~1.3%. Accessible via CAT."
GA,Albany State University,Albany,31705,"6,000","Dougherty County commercial property tax ~1.4%. Accessible via Albany Transit."
GA,Fort Valley State University,Fort Valley,31030,"3,000","Peach County commercial property tax ~1.2%. Limited public transit."
GA,Clayton State University,Morrow,30260,"7,000","Clayton County commercial property tax ~1.5%. Accessible via MARTA."
GA,Middle Georgia State University,Macon,31206,"8,000","Bibb County commercial property tax ~1.5%. Accessible via MTA."
ID,Boise State University,Boise,83725,"26,000","Ada County commercial property tax ~1.1%. Accessible via Valley Regional Transit."
ID,University of Idaho,Moscow,83844,"11,000","Latah County commercial property tax ~1.0%. Accessible via SMART Transit."
ID,Idaho State University,Pocatello,83209,"12,000","Bannock County commercial property tax ~1.2%. Accessible via Pocatello Regional Transit."
ID,Lewis-Clark State College,Lewiston,83501,"4,000","Nez Perce County commercial property tax ~1.3%. Accessible via Lewiston Transit System."
IL,University of Illinois Urbana-Champaign,Urbana,61801,"56,000","Champaign County commercial property tax ~2.5%. Accessible via C-U MTD."
IL,University of Illinois Chicago,Chicago,60607,"34,000","Cook County commercial property tax ~2.5%. Accessible via CTA."
IL,Northern Illinois University,DeKalb,60115,"16,000","DeKalb County commercial property tax ~2.8%. Accessible via Huskie Line."
IL,Illinois State University,Normal,61761,"20,000","McLean County commercial property tax ~2.4%. Accessible via Connect Transit."
IL,Southern Illinois University Carbondale,Carbondale,62901,"11,000","Jackson County commercial property tax ~2.6%. Accessible via Saluki Express."
IL,Southern Illinois University Edwardsville,Edwardsville,62026,"13,000","Madison County commercial property tax ~2.7%. Accessible via MCT."
IL,Eastern Illinois University,Charleston,61920,"8,000","Coles County commercial property tax ~2.5%. Accessible via Panther Shuttle."
IL,Western Illinois University,Macomb,61455,"7,000","McDonough County commercial property tax ~2.4%. Accessible via Go West."
IL,Northeastern Illinois University,Chicago,60625,"7,000","Cook County commercial property tax ~2.5%. Accessible via CTA."
IL,Chicago State University,Chicago,60628,"3,000","Cook County commercial property tax ~2.5%. Accessible via CTA."
IL,Governors State University,University Park,60484,"5,000","Will County commercial property tax ~2.6%. Accessible via Pace."
IL,University of Illinois Springfield,Springfield,62703,"4,000","Sangamon County commercial property tax ~2.3%. Accessible via SMTD."
IN,Purdue University,West Lafayette,47907,"50,000","Tippecanoe County commercial property tax ~1.0%. Accessible via CityBus."
IN,Indiana University Bloomington,Bloomington,47405,"47,000","Monroe County commercial property tax ~1.1%. Accessible via Bloomington Transit."
IN,Ball State University,Muncie,47306,"21,000","Delaware County commercial property tax ~1.2%. Accessible via MITS."
IN,Indiana University-Purdue University Indianapolis (IUPUI),Indianapolis,46202,"29,000","Marion County commercial property tax ~1.5%. Accessible via IndyGo."
IN,Indiana State University,Terre Haute,47809,"10,000","Vigo County commercial property tax ~1.3%. Accessible via Terre Haute Transit."
IN,University of Southern Indiana,Evansville,47712,"9,000","Vanderburgh County commercial property tax ~1.2%. Accessible via METS."
IN,Purdue University Fort Wayne,Fort Wayne,46805,"10,000","Allen County commercial property tax ~1.3%. Accessible via Citilink."
IN,Indiana University Northwest,Gary,46408,"4,000","Lake County commercial property tax ~1.6%. Accessible via GPTC."
IN,Indiana University South Bend,South Bend,46634,"5,000","St. Joseph County commercial property tax ~1.4%. Accessible via Transpo."
IN,Indiana University Southeast,New Albany,47150,"4,000","Floyd County commercial property tax ~1.2%. Accessible via TARC."
IN,Indiana University East,Richmond,47374,"3,000","Wayne County commercial property tax ~1.2%. Accessible via Rose View Transit."
IN,Indiana University Kokomo,Kokomo,46904,"3,000","Howard County commercial property tax ~1.3%. Accessible via Kokomo City Line."
IA,University of Iowa,Iowa City,52242,"31,000","Johnson County commercial property tax ~2.0%. Accessible via Iowa City Transit."
IA,Iowa State University,Ames,50011,"33,000","Story County commercial property tax ~1.9%. Accessible via CyRide."
IA,University of Northern Iowa,Cedar Falls,50614,"9,000","Black Hawk County commercial property tax ~2.1%. Accessible via MET Transit."
KS,University of Kansas,Lawrence,66045,"27,000","Douglas County commercial property tax ~1.8%. Accessible via Lawrence Transit."
KS,Kansas State University,Manhattan,66506,"21,000","Riley County commercial property tax ~1.7%. Accessible via aTa Bus."
KS,Wichita State University,Wichita,67260,"16,000","Sedgwick County commercial property tax ~1.9%. Accessible via Wichita Transit."
KS,Emporia State University,Emporia,66801,"6,000","Lyon County commercial property tax ~1.8%. Accessible via L-CAT."
KS,Pittsburg State University,Pittsburg,66762,"7,000","Crawford County commercial property tax ~1.9%. Accessible via SPARTRAN."
KS,Fort Hays State University,Hays,67601,"15,000","Ellis County commercial property tax ~1.6%. Limited public transit."
KS,Washburn University,Topeka,66621,"6,000","Shawnee County commercial property tax ~2.0%. Accessible via Topeka Metro."
KY,University of Kentucky,Lexington,40506,"31,000","Fayette County commercial property tax ~1.2%. Accessible via Lextran."
KY,University of Louisville,Louisville,40292,"22,000","Jefferson County commercial property tax ~1.3%. Accessible via TARC."
KY,Western Kentucky University,Bowling Green,42101,"17,000","Warren County commercial property tax ~1.0%. Accessible via GO BG."
KY,Eastern Kentucky University,Richmond,40475,"14,000","Madison County commercial property tax ~1.0%. Accessible via Big E Transit."
KY,Northern Kentucky University,Highland Heights,41099,"16,000","Campbell County commercial property tax ~1.1%. Accessible via TANK."
KY,Murray State University,Murray,42071,"9,000","Calloway County commercial property tax ~0.9%. Accessible via MUTS."
KY,Morehead State University,Morehead,40351,"9,000","Rowan County commercial property tax ~1.0%. Accessible via Morehead Transit."
KY,Kentucky State University,Frankfort,40601,"2,000","Franklin County commercial property tax ~1.1%. Accessible via Frankfort Transit."
LA,Louisiana State University,Baton Rouge,70803,"35,000","East Baton Rouge Parish commercial property tax ~1.4%. Accessible via CATS."
LA,Tulane University,New Orleans,70118,"14,000","Orleans Parish commercial property tax ~1.6%. Accessible via RTA. *Note: Tulane is a private university.*"
LA,University of Louisiana at Lafayette,Lafayette,70504,"19,000","Lafayette Parish commercial property tax ~1.3%. Accessible via LTS."
LA,Louisiana Tech University,Ruston,71272,"11,000","Lincoln Parish commercial property tax ~1.2%. Accessible via KTBS."
LA,University of New Orleans,New Orleans,70148,"8,000","Orleans Parish commercial property tax ~1.6%. Accessible via RTA."
LA,Southeastern Louisiana University,Hammond,70402,"14,000","Tangipahoa Parish commercial property tax ~1.3%. Limited public transit."
LA,University of Louisiana at Monroe,Monroe,71209,"9,000","Ouachita Parish commercial property tax ~1.4%. Accessible via Monroe Transit."
LA,McNeese State University,Lake Charles,70609,"7,000","Calcasieu Parish commercial property tax ~1.4%. Accessible via Lake Charles Transit."
LA,Nicholls State University,Thibodaux,70310,"6,000","Lafourche Parish commercial property tax ~1.3%. Limited public transit."
LA,Grambling State University,Grambling,71245,"5,000","Lincoln Parish commercial property tax ~1.2%. Limited public transit."
LA,Southern University and A&M College,Baton Rouge,70813,"7,000","East Baton Rouge Parish commercial property tax ~1.4%. Accessible via CATS."
LA,Northwestern State University of Louisiana,Natchitoches,71497,"11,000","Natchitoches Parish commercial property tax ~1.2%. Limited public transit."
ME,University of Maine,Orono,04469,"11,500","Penobscot County commercial property tax ~1.8%. Accessible via Community Connector."
ME,University of Southern Maine,Portland,04103,"8,000","Cumberland County commercial property tax ~1.9%. Accessible via Greater Portland METRO."
ME,University of Maine at Augusta,Augusta,04330,"4,500","Kennebec County commercial property tax ~2.0%. Accessible via Kennebec Explorer."
ME,University of Maine at Farmington,Farmington,04938,"2,000","Franklin County commercial property tax ~1.9%. Limited public transit."
ME,University of Maine at Fort Kent,Fort Kent,04743,"1,500","Aroostook County commercial property tax ~1.7%. Limited public transit."
ME,University of Maine at Presque Isle,Presque Isle,04769,"1,500","Aroostook County commercial property tax ~1.7%. Accessible via The County Connection."
ME,University of Maine at Machias,Machias,04654,"800","Washington County commercial property tax ~1.6%. Limited public transit."
ME,Maine Maritime Academy,Castine,04420,"1,000","Hancock County commercial property tax ~1.5%. Limited public transit."
MD,University of Maryland, College Park,College Park,20742,"41,000","Prince George's County commercial property tax ~1.8%. Accessible via WMATA."
MD,Towson University,Towson,21252,"22,000","Baltimore County commercial property tax ~1.9%. Accessible via MTA."
MD,University of Maryland, Baltimore County,Baltimore,21250,"14,000","Baltimore County commercial property tax ~1.9%. Accessible via MTA."
MD,Salisbury University,Salisbury,21801,"8,500","Wicomico County commercial property tax ~1.5%. Accessible via Shore Transit."
MD,University of Baltimore,Baltimore,21201,"5,000","Baltimore City commercial property tax ~2.2%. Accessible via MTA."
MD,Morgan State University,Baltimore,21251,"8,000","Baltimore City commercial property tax ~2.2%. Accessible via MTA."
MD,Frostburg State University,Frostburg,21532,"5,000","Allegany County commercial property tax ~1.6%. Limited public transit."
MD,Bowie State University,Bowie,20715,"6,000","Prince George's County commercial property tax ~1.8%. Accessible via TheBus."
MD,Coppin State University,Baltimore,21216,"2,500","Baltimore City commercial property tax ~2.2%. Accessible via MTA."
MD,University of Maryland Eastern Shore,Princess Anne,21853,"2,500","Somerset County commercial property tax ~1.4%. Limited public transit."
MD,St. Mary's College of Maryland,St. Mary's City,20686,"1,500","St. Mary's County commercial property tax ~1.3%. Limited public transit."
MA,University of Massachusetts Amherst,Amherst,01003,"32,000","Hampshire County commercial property tax ~1.5%. Accessible via PVTA."
MA,University of Massachusetts Boston,Boston,02125,"16,000","Suffolk County commercial property tax ~2.5%. Accessible via MBTA."
MA,University of Massachusetts Dartmouth,Dartmouth,02747,"8,500","Bristol County commercial property tax ~1.7%. Accessible via SRTA."
MA,University of Massachusetts Lowell,Lowell,01854,"18,000","Middlesex County commercial property tax ~1.9%. Accessible via LRTA."
MA,Bridgewater State University,Bridgewater,02325,"10,000","Plymouth County commercial property tax ~1.6%. Accessible via BAT."
MA,Fitchburg State University,Fitchburg,01420,"7,000","Worcester County commercial property tax ~1.8%. Accessible via MART."
MA,Framingham State University,Framingham,01701,"6,500","Middlesex County commercial property tax ~1.9%. Accessible via MWRTA."
MA,Salem State University,Salem,01970,"7,000","Essex County commercial property tax ~1.7%. Accessible via MBTA."
MA,Westfield State University,Westfield,01086,"6,000","Hampden County commercial property tax ~1.8%. Accessible via PVTA."
MA,Worcester State University,Worcester,01602,"6,000","Worcester County commercial property tax ~1.8%. Accessible via WRTA."
MA,Massachusetts College of Art and Design,Boston,02115,"2,000","Suffolk County commercial property tax ~2.5%. Accessible via MBTA."
MA,Massachusetts College of Liberal Arts,North Adams,01247,"1,500","Berkshire County commercial property tax ~1.6%. Accessible via BRTA."
MA,Massachusetts Maritime Academy,Buzzards Bay,02532,"1,500","Barnstable County commercial property tax ~1.2%. Limited public transit."
MI,University of Michigan,Ann Arbor,48109,"50,000","Washtenaw County commercial property tax ~2.0%. Accessible via TheRide."
MI,Michigan State University,East Lansing,48824,"50,000","Ingham County commercial property tax ~2.2%. Accessible via CATA."
MI,Wayne State University,Detroit,48202,"26,000","Wayne County commercial property tax ~2.8%. Accessible via DDOT, QLINE."
MI,Central Michigan University,Mount Pleasant,48859,"17,000","Isabella County commercial property tax ~2.0%. Accessible via I-Ride."
MI,Western Michigan University,Kalamazoo,49008,"21,000","Kalamazoo County commercial property tax ~2.4%. Accessible via Metro Transit."
MI,Eastern Michigan University,Ypsilanti,48197,"16,000","Washtenaw County commercial property tax ~2.0%. Accessible via TheRide."
MI,Oakland University,Rochester,48309,"19,000","Oakland County commercial property tax ~1.8%. Accessible via SMART."
MI,Grand Valley State University,Allendale,49401,"23,000","Ottawa County commercial property tax ~1.6%. Accessible via The Rapid."
MI,Ferris State University,Big Rapids,49307,"11,000","Mecosta County commercial property tax ~1.9%. Accessible via B-R-T."
MI,Michigan Technological University,Houghton,49931,"7,000","Houghton County commercial property tax ~1.7%. Accessible via Houghton Transit."
MI,Northern Michigan University,Marquette,49855,"7,500","Marquette County commercial property tax ~1.8%. Accessible via Marq-Tran."
MI,Saginaw Valley State University,University Center,48710,"8,000","Saginaw County commercial property tax ~2.1%. Accessible via STARS."
MI,Lake Superior State University,Sault Ste. Marie,49783,"2,000","Chippewa County commercial property tax ~1.6%. Accessible via Soo Transit."
MN,University of Minnesota Twin Cities,Minneapolis,55455,"52,000","Hennepin County commercial property tax ~2.8%. Accessible via Metro Transit."
MN,University of Minnesota Duluth,Duluth,55812,"10,000","St. Louis County commercial property tax ~2.2%. Accessible via DTA."
MN,St. Cloud State University,St. Cloud,56301,"12,000","Stearns County commercial property tax ~2.4%. Accessible via St. Cloud Metro Bus."
MN,Minnesota State University, Mankato,Mankato,56001,"14,000","Blue Earth County commercial property tax ~2.1%. Accessible via Mankato Transit System."
MN,Winona State University,Winona,55987,"7,000","Winona County commercial property tax ~2.0%. Accessible via Winona Transit Service."
MN,Bemidji State University,Bemidji,56601,"5,000","Beltrami County commercial property tax ~1.9%. Accessible via Paul Bunyan Transit."
MN,Minnesota State University Moorhead,Moorhead,56563,"6,000","Clay County commercial property tax ~2.0%. Accessible via MATBUS."
MN,Southwest Minnesota State University,Marshall,56258,"7,000","Lyon County commercial property tax ~1.9%. Limited public transit."
MN,Metropolitan State University,St. Paul,55106,"11,000","Ramsey County commercial property tax ~2.7%. Accessible via Metro Transit."
MS,Mississippi State University,Starkville,39762,"23,000","Oktibbeha County commercial property tax ~1.3%. Accessible via S.M.A.R.T."
MS,University of Mississippi,Oxford,38677,"21,000","Lafayette County commercial property tax ~1.2%. Accessible via O.U.T."
MS,University of Southern Mississippi,Hattiesburg,39406,"14,000","Forrest County commercial property tax ~1.4%. Accessible via Hub City Transit."
MS,Jackson State University,Jackson,39217,"7,000","Hinds County commercial property tax ~1.6%. Accessible via JATRAN."
MS,Delta State University,Cleveland,38733,"3,500","Bolivar County commercial property tax ~1.5%. Limited public transit."
MS,Alcorn State University,Lorman,39096,"3,000","Claiborne County commercial property tax ~1.4%. Limited public transit."
MS,Mississippi University for Women,Columbus,39701,"2,500","Lowndes County commercial property tax ~1.3%. Limited public transit."
MS,Mississippi Valley State University,Itta Bena,38941,"2,000","Leflore County commercial property tax ~1.5%. Limited public transit."
MO,University of Missouri,Columbia,65211,"31,000","Boone County commercial property tax ~1.5%. Accessible via GoCOMO."
MO,Missouri State University,Springfield,65897,"24,000","Greene County commercial property tax ~1.4%. Accessible via CU Transit."
MO,University of Missouri-Kansas City,Kansas City,64110,"16,000","Jackson County commercial property tax ~1.9%. Accessible via KC Streetcar, RideKC."
MO,University of Missouri-St. Louis,St. Louis,63121,"15,000","St. Louis County commercial property tax ~1.8%. Accessible via MetroLink."
MO,Southeast Missouri State University,Cape Girardeau,63701,"10,000","Cape Girardeau County commercial property tax ~1.3%. Accessible via CG Public Transit."
MO,University of Central Missouri,Warrensburg,64093,"11,000","Johnson County commercial property tax ~1.4%. Limited public transit."
MO,Truman State University,Kirksville,63501,"4,000","Adair County commercial property tax ~1.2%. Accessible via Kirk-Tran."
MO,Northwest Missouri State University,Maryville,64468,"8,000","Nodaway County commercial property tax ~1.3%. Limited public transit."
MO,Missouri University of Science and Technology,Rolla,65409,"8,000","Phelps County commercial property tax ~1.3%. Limited public transit."
MO,Missouri Southern State University,Joplin,64801,"5,000","Jasper County commercial property tax ~1.4%. Accessible via METS."
MO,Missouri Western State University,St. Joseph,64507,"4,000","Buchanan County commercial property tax ~1.6%. Accessible via St. Joseph Transit."
MO,Lincoln University,Jefferson City,65101,"2,000","Cole County commercial property tax ~1.4%. Accessible via JEFFTRAN."
MO,Harris-Stowe State University,St. Louis,63103,"1,500","St. Louis City commercial property tax ~2.0%. Accessible via MetroLink."
MT,Montana State University,Bozeman,59717,"16,000","Gallatin County commercial property tax ~1.2%. Accessible via Streamline."
MT,University of Montana,Missoula,59812,"10,000","Missoula County commercial property tax ~1.3%. Accessible via Mountain Line."
MT,Montana State University Billings,Billings,59101,"4,000","Yellowstone County commercial property tax ~1.4%. Accessible via MET Transit."
MT,Montana Technological University,Butte,59701,"2,500","Silver Bow County commercial property tax ~1.5%. Accessible via Butte-Silver Bow Transit."
MT,University of Montana Western,Dillon,59725,"1,500","Beaverhead County commercial property tax ~1.1%. Limited public transit."
MT,Montana State University-Northern,Havre,59501,"1,000","Hill County commercial property tax ~1.3%. Limited public transit."
NE,University of Nebraska-Lincoln,Lincoln,68588,"25,000","Lancaster County commercial property tax ~2.0%. Accessible via StarTran."
NE,University of Nebraska Omaha,Omaha,68182,"15,000","Douglas County commercial property tax ~2.2%. Accessible via Omaha Metro."
NE,University of Nebraska at Kearney,Kearney,68849,"6,000","Buffalo County commercial property tax ~1.8%. Accessible via KRAN."
NE,Wayne State College,Wayne,68787,"4,000","Wayne County commercial property tax ~1.7%. Limited public transit."
NE,Chadron State College,Chadron,69337,"2,500","Dawes County commercial property tax ~1.6%. Limited public transit."
NE,Peru State College,Peru,68421,"2,000","Nemaha County commercial property tax ~1.7%. Limited public transit."
NV,University of Nevada, Las Vegas,Las Vegas,89154,"31,000","Clark County commercial property tax ~1.1%. Accessible via RTC."
NV,University of Nevada, Reno,Reno,89557,"21,000","Washoe County commercial property tax ~1.0%. Accessible via RTC RIDE."
NV,Nevada State College,Henderson,89002,"7,000","Clark County commercial property tax ~1.1%. Accessible via RTC."
NV,College of Southern Nevada,North Las Vegas,89030,"34,000","Clark County commercial property tax ~1.1%. Accessible via RTC."
NV,Great Basin College,Elko,89801,"4,000","Elko County commercial property tax ~0.9%. Limited public transit."
NV,Western Nevada College,Carson City,89703,"3,500","Carson City commercial property tax ~1.0%. Accessible via JAC."
NV,Truckee Meadows Community College,Reno,89512,"11,000","Washoe County commercial property tax ~1.0%. Accessible via RTC RIDE."
NH,University of New Hampshire,Durham,03824,"15,000","Strafford County commercial property tax ~2.5%. Accessible via Wildcat Transit."
NH,Plymouth State University,Plymouth,03264,"4,000","Grafton County commercial property tax ~2.3%. Accessible via Concord Coach Lines."
NH,Keene State College,Keene,03431,"3,500","Cheshire County commercial property tax ~2.8%. Accessible via KSC Shuttle."
NH,Granite State College,Concord,03301,"2,000","Merrimack County commercial property tax ~2.7%. Accessible via Concord Area Transit."
NJ,Rutgers University-New Brunswick,New Brunswick,08901,"50,000","Middlesex County commercial property tax ~2.8%. Accessible via NJ Transit."
NJ,Montclair State University,Montclair,07043,"21,000","Essex County commercial property tax ~3.0%. Accessible via NJ Transit."
NJ,Rowan University,Glassboro,08028,"20,000","Gloucester County commercial property tax ~3.2%. Accessible via NJ Transit."
NJ,The College of New Jersey,Ewing,08628,"8,000","Mercer County commercial property tax ~2.9%. Accessible via NJ Transit."
NJ,Kean University,Union,07083,"16,000","Union County commercial property tax ~3.1%. Accessible via NJ Transit."
NJ,New Jersey Institute of Technology,Newark,07102,"12,000","Essex County commercial property tax ~3.0%. Accessible via NJ Transit, PATH."
NJ,William Paterson University,Wayne,07470,"10,000","Passaic County commercial property tax ~3.0%. Accessible via NJ Transit."
NJ,New Jersey City University,Jersey City,07305,"8,000","Hudson County commercial property tax ~2.5%. Accessible via PATH, Hudson-Bergen Light Rail."
NJ,Stockton University,Galloway,08205,"10,000","Atlantic County commercial property tax ~2.7%. Accessible via NJ Transit."
NJ,Ramapo College of New Jersey,Mahwah,07430,"6,000","Bergen County commercial property tax ~2.4%. Accessible via NJ Transit."
NJ,Thomas Edison State University,Trenton,08608,"10,000","Mercer County commercial property tax ~2.9%. Accessible via NJ Transit."
NM,University of New Mexico,Albuquerque,87131,"22,000","Bernalillo County commercial property tax ~1.6%. Accessible via ABQ RIDE."
NM,New Mexico State University,Las Cruces,88003,"14,000","Doña Ana County commercial property tax ~1.4%. Accessible via RoadRUNNER Transit."
NM,Eastern New Mexico University,Portales,88130,"5,000","Roosevelt County commercial property tax ~1.3%. Limited public transit."
NM,New Mexico Highlands University,Las Vegas,87701,"3,000","San Miguel County commercial property tax ~1.2%. Limited public transit."
NM,Western New Mexico University,Silver City,88061,"3,500","Grant County commercial property tax ~1.1%. Accessible via Corre Caminos."
NM,New Mexico Institute of Mining and Technology,Socorro,87801,"2,000","Socorro County commercial property tax ~1.2%. Limited public transit."
NM,Northern New Mexico College,Española,87532,"1,000","Rio Arriba County commercial property tax ~1.3%. Accessible via NCRTD."
NY,Stony Brook University (SUNY),Stony Brook,11794,"27,000","Suffolk County commercial property tax ~3.5%. Accessible via LIRR."
NY,University at Buffalo (SUNY),Buffalo,14260,"32,000","Erie County commercial property tax ~3.2%. Accessible via NFTA."
NY,Binghamton University (SUNY),Binghamton,13902,"18,000","Broome County commercial property tax ~3.1%. Accessible via BC Transit."
NY,University at Albany (SUNY),Albany,12222,"17,000","Albany County commercial property tax ~2.8%. Accessible via CDTA."
NY,Hunter College (CUNY),New York,10065,"24,000","New York County commercial property tax ~4.0%. Accessible via MTA."
NY,Queens College (CUNY),Queens,11367,"19,000","Queens County commercial property tax ~3.8%. Accessible via MTA."
NY,Brooklyn College (CUNY),Brooklyn,11210,"17,000","Kings County commercial property tax ~3.8%. Accessible via MTA."
NY,City College of New York (CUNY),New York,10031,"16,000","New York County commercial property tax ~4.0%. Accessible via MTA."
NY,Baruch College (CUNY),New York,10010,"20,000","New York County commercial property tax ~4.0%. Accessible via MTA."
NY,SUNY New Paltz,New Paltz,12561,"7,500","Ulster County commercial property tax ~2.9%. Accessible via UCAT."
NY,SUNY Oneonta,Oneonta,13820,"6,000","Otsego County commercial property tax ~2.7%. Accessible via OPT."
NY,SUNY Geneseo,Geneseo,14454,"5,000","Livingston County commercial property tax ~2.8%. Accessible via RGRTA."
NY,SUNY Cortland,Cortland,13045,"7,000","Cortland County commercial property tax ~2.9%. Accessible via Cortland Transit."
NY,SUNY Oswego,Oswego,13126,"7,500","Oswego County commercial property tax ~3.0%. Accessible via Centro."
NY,SUNY Plattsburgh,Plattsburgh,12901,"5,000","Clinton County commercial property tax ~2.6%. Accessible via CCT."
NY,SUNY Potsdam,Potsdam,13676,"3,000","St. Lawrence County commercial property tax ~2.8%. Limited public transit."
NY,SUNY Fredonia,Fredonia,14063,"4,000","Chautauqua County commercial property tax ~3.1%. Accessible via CARTS."
NY,Buffalo State College (SUNY),Buffalo,14222,"8,000","Erie County commercial property tax ~3.2%. Accessible via NFTA."
NY,SUNY Brockport,Brockport,14420,"7,500","Monroe County commercial property tax ~3.0%. Accessible via RTS."
NY,SUNY Old Westbury,Old Westbury,11568,"5,000","Nassau County commercial property tax ~2.5%. Accessible via NICE."
NY,Purchase College (SUNY),Purchase,10577,"4,000","Westchester County commercial property tax ~2.6%. Accessible via Bee-Line."
NY,SUNY Maritime College,Bronx,10465,"1,800","Bronx County commercial property tax ~3.9%. Accessible via MTA."
NC,North Carolina State University,Raleigh,27695,"36,000","Wake County commercial property tax ~1.1%. Accessible via GoRaleigh."
NC,University of North Carolina at Chapel Hill,Chapel Hill,27599,"31,000","Orange County commercial property tax ~1.5%. Accessible via Chapel Hill Transit."
NC,East Carolina University,Greenville,27858,"28,000","Pitt County commercial property tax ~1.2%. Accessible via GREAT."
NC,University of North Carolina at Charlotte,Charlotte,28223,"30,000","Mecklenburg County commercial property tax ~1.3%. Accessible via CATS."
NC,Appalachian State University,Boone,28608,"20,000","Watauga County commercial property tax ~0.8%. Accessible via AppalCART."
NC,University of North Carolina at Greensboro,Greensboro,27412,"19,000","Guilford County commercial property tax ~1.3%. Accessible via GTA/HEAT."
NC,University of North Carolina Wilmington,Wilmington,28403,"18,000","New Hanover County commercial property tax ~1.1%. Accessible via Wave Transit."
NC,Western Carolina University,Cullowhee,28723,"12,000","Jackson County commercial property tax ~0.9%. Accessible via Cat-Tran."
NC,North Carolina A&T State University,Greensboro,27411,"13,000","Guilford County commercial property tax ~1.3%. Accessible via GTA/HEAT."
NC,North Carolina Central University,Durham,27707,"8,000","Durham County commercial property tax ~1.4%. Accessible via GoDurham."
NC,University of North Carolina at Pembroke,Pembroke,28372,"8,000","Robeson County commercial property tax ~1.1%. Limited public transit."
NC,Winston-Salem State University,Winston-Salem,27110,"5,000","Forsyth County commercial property tax ~1.3%. Accessible via WSTA."
NC,Fayetteville State University,Fayetteville,28301,"7,000","Cumberland County commercial property tax ~1.2%. Accessible via FAST."
NC,University of North Carolina at Asheville,Asheville,28804,"3,500","Buncombe County commercial property tax ~1.0%. Accessible via ART."
NC,Elizabeth City State University,Elizabeth City,27909,"2,000","Pasquotank County commercial property tax ~1.0%. Limited public transit."
ND,North Dakota State University,Fargo,58102,"14,000","Cass County commercial property tax ~1.2%. Accessible via MATBUS."
ND,University of North Dakota,Grand Forks,58202,"13,000","Grand Forks County commercial property tax ~1.3%. Accessible via CAT."
ND,Minot State University,Minot,58707,"3,000","Ward County commercial property tax ~1.1%. Accessible via Minot City Transit."
ND,Valley City State University,Valley City,58072,"1,500","Barnes County commercial property tax ~1.0%. Limited public transit."
ND,Dickinson State University,Dickinson,58601,"1,500","Stark County commercial property tax ~1.0%. Limited public transit."
ND,Mayville State University,Mayville,58257,"1,000","Traill County commercial property tax ~1.1%. Limited public transit."
OH,Ohio State University,Columbus,43210,"60,000","Franklin County commercial property tax ~2.5%. Accessible via COTA."
OH,University of Cincinnati,Cincinnati,45221,"47,000","Hamilton County commercial property tax ~2.8%. Accessible via SORTA."
OH,Kent State University,Kent,44242,"34,000","Portage County commercial property tax ~2.2%. Accessible via PARTA."
OH,Ohio University,Athens,45701,"28,000","Athens County commercial property tax ~2.0%. Accessible via Athens Public Transit."
OH,University of Akron,Akron,44325,"17,000","Summit County commercial property tax ~2.4%. Accessible via METRO RTA."
OH,University of Toledo,Toledo,43606,"18,000","Lucas County commercial property tax ~2.6%. Accessible via TARTA."
OH,Bowling Green State University,Bowling Green,43403,"19,000","Wood County commercial property tax ~2.1%. Accessible via BG Transit."
OH,Wright State University,Dayton,45435,"12,000","Greene County commercial property tax ~2.3%. Accessible via RTA."
OH,Cleveland State University,Cleveland,44115,"16,000","Cuyahoga County commercial property tax ~3.0%. Accessible via RTA."
OH,Miami University,Oxford,45056,"19,000","Butler County commercial property tax ~2.2%. Accessible via BCRTA."
OH,Youngstown State University,Youngstown,44555,"12,000","Mahoning County commercial property tax ~2.5%. Accessible via WRTA."
OH,Shawnee State University,Portsmouth,45662,"3,500","Scioto County commercial property tax ~2.1%. Accessible via Access Scioto County."
OH,Central State University,Wilberforce,45384,"3,500","Greene County commercial property tax ~2.3%. Accessible via Greene CATS."
OK,University of Oklahoma,Norman,73019,"28,000","Cleveland County commercial property tax ~1.3%. Accessible via CART."
OK,Oklahoma State University,Stillwater,74078,"24,000","Payne County commercial property tax ~1.2%. Accessible via OSU Stillwater Community Transit."
OK,University of Central Oklahoma,Edmond,73034,"14,000","Oklahoma County commercial property tax ~1.4%. Accessible via Citylink Edmond."
OK,Northeastern State University,Tahlequah,74464,"7,000","Cherokee County commercial property tax ~1.1%. Accessible via Coretz."
OK,Southeastern Oklahoma State University,Durant,74701,"5,000","Bryan County commercial property tax ~1.2%. Limited public transit."
OK,Southwestern Oklahoma State University,Weatherford,73096,"5,000","Custer County commercial property tax ~1.1%. Limited public transit."
OK,Cameron University,Lawton,73505,"4,000","Comanche County commercial property tax ~1.3%. Accessible via LATS."
OK,East Central University,Ada,74820,"3,500","Pontotoc County commercial property tax ~1.2%. Accessible via SCART."
OK,Northwestern Oklahoma State University,Alva,73717,"2,000","Woods County commercial property tax ~1.1%. Limited public transit."
OK,Oklahoma Panhandle State University,Goodwell,73939,"1,500","Texas County commercial property tax ~1.0%. Limited public transit."
OK,Rogers State University,Claremore,74017,"3,500","Rogers County commercial property tax ~1.2%. Accessible via Pelivan Transit."
OK,University of Science and Arts of Oklahoma,Chickasha,73018,"800","Grady County commercial property tax ~1.2%. Limited public transit."
OK,Langston University,Langston,73050,"2,000","Logan County commercial property tax ~1.3%. Limited public transit."
OR,University of Oregon,Eugene,97403,"23,000","Lane County commercial property tax ~1.2%. Accessible via LTD."
OR,Oregon State University,Corvallis,97331,"34,000","Benton County commercial property tax ~1.1%. Accessible via CTS."
OR,Portland State University,Portland,97201,"24,000","Multnomah County commercial property tax ~1.8%. Accessible via TriMet."
OR,Southern Oregon University,Ashland,97520,"5,000","Jackson County commercial property tax ~1.0%. Accessible via RVTD."
OR,Western Oregon University,Monmouth,97361,"4,000","Polk County commercial property tax ~1.3%. Accessible via Cherriots."
OR,Eastern Oregon University,La Grande,97850,"3,000","Union County commercial property tax ~1.2%. Limited public transit."
OR,Oregon Institute of Technology,Klamath Falls,97601,"5,000","Klamath County commercial property tax ~1.1%. Accessible via Basin Transit."
PA,Pennsylvania State University,University Park,16802,"90,000","Centre County commercial property tax ~2.0%. Accessible via CATA."
PA,University of Pittsburgh,Pittsburgh,15260,"33,000","Allegheny County commercial property tax ~2.5%. Accessible via Port Authority."
PA,Temple University,Philadelphia,19122,"35,000","Philadelphia County commercial property tax ~1.4%. Accessible via SEPTA."
PA,West Chester University of Pennsylvania,West Chester,19383,"17,000","Chester County commercial property tax ~1.6%. Accessible via SEPTA."
PA,Indiana University of Pennsylvania,Indiana,15705,"10,000","Indiana County commercial property tax ~1.8%. Accessible via IndiGO."
PA,Slippery Rock University of Pennsylvania,Slippery Rock,16057,"8,500","Butler County commercial property tax ~1.9%. Limited public transit."
PA,Kutztown University of Pennsylvania,Kutztown,19530,"8,000","Berks County commercial property tax ~2.1%. Accessible via BARTA."
PA,Millersville University of Pennsylvania,Millersville,17551,"7,500","Lancaster County commercial property tax ~1.7%. Accessible via RRTA."
PA,Bloomsburg University of Pennsylvania,Bloomsburg,17815,"8,000","Columbia County commercial property tax ~1.9%. Limited public transit."
PA,Shippensburg University of Pennsylvania,Shippensburg,17257,"6,000","Cumberland County commercial property tax ~1.8%. Accessible via CAT."
PA,East Stroudsburg University of Pennsylvania,East Stroudsburg,18301,"6,000","Monroe County commercial property tax ~2.0%. Accessible via MCTA."
PA,Clarion University of Pennsylvania,Clarion,16214,"4,000","Clarion County commercial property tax ~1.9%. Limited public transit."
PA,California University of Pennsylvania,California,15419,"7,000","Washington County commercial property tax ~2.0%. Limited public transit."
PA,Edinboro University of Pennsylvania,Edinboro,16444,"4,500","Erie County commercial property tax ~2.2%. Accessible via EMTA."
PA,Mansfield University of Pennsylvania,Mansfield,16933,"2,000","Tioga County commercial property tax ~1.8%. Limited public transit."
PA,Lock Haven University of Pennsylvania,Lock Haven,17745,"3,000","Clinton County commercial property tax ~1.9%. Limited public transit."
PA,Cheyney University of Pennsylvania,Cheyney,19319,"700","Delaware County commercial property tax ~2.2%. Accessible via SEPTA."
PA,Lincoln University,Lincoln University,19352,"2,000","Chester County commercial property tax ~1.6%. Limited public transit."
RI,University of Rhode Island,Kingston,02881,"17,000","Washington County commercial property tax ~1.6%. Accessible via RIPTA."
RI,Rhode Island College,Providence,02908,"7,000","Providence County commercial property tax ~2.5%. Accessible via RIPTA."
SC,University of South Carolina,Columbia,29208,"35,000","Richland County commercial property tax ~1.8%. Accessible via The COMET."
SC,Clemson University,Clemson,29634,"27,000","Pickens County commercial property tax ~1.4%. Accessible via CATbus."
SC,College of Charleston,Charleston,29424,"10,000","Charleston County commercial property tax ~1.6%. Accessible via CARTA."
SC,Coastal Carolina University,Conway,29526,"10,000","Horry County commercial property tax ~1.2%. Accessible via Coast RTA."
SC,Winthrop University,Rock Hill,29733,"5,000","York County commercial property tax ~1.5%. Accessible via My Ride."
SC,Francis Marion University,Florence,29506,"4,000","Florence County commercial property tax ~1.4%. Accessible via PDRTA."
SC,South Carolina State University,Orangeburg,29117,"2,500","Orangeburg County commercial property tax ~1.7%. Limited public transit."
SC,Lander University,Greenwood,29649,"4,000","Greenwood County commercial property tax ~1.3%. Limited public transit."
SC,The Citadel,Charleston,29409,"3,500","Charleston County commercial property tax ~1.6%. Accessible via CARTA. (Military College)"
SD,South Dakota State University,Brookings,57007,"12,000","Brookings County commercial property tax ~2.0%. Accessible via BATA."
SD,University of South Dakota,Vermillion,57069,"10,000","Clay County commercial property tax ~1.9%. Limited public transit."
SD,Black Hills State University,Spearfish,57783,"4,000","Lawrence County commercial property tax ~1.8%. Limited public transit."
SD,Northern State University,Aberdeen,57401,"3,500","Brown County commercial property tax ~1.9%. Accessible via Aberdeen Ride Line."
SD,Dakota State University,Madison,57042,"3,000","Lake County commercial property tax ~1.8%. Limited public transit."
SD,South Dakota School of Mines & Technology,Rapid City,57701,"2,500","Pennington County commercial property tax ~1.9%. Accessible via Rapid Ride."
TN,University of Tennessee, Knoxville,Knoxville,37996,"31,000","Knox County commercial property tax ~2.2%. Accessible via KAT."
TN,University of Memphis,Memphis,38152,"22,000","Shelby County commercial property tax ~2.5%. Accessible via MATA."
TN,Middle Tennessee State University,Murfreesboro,37132,"21,000","Rutherford County commercial property tax ~1.8%. Accessible via Rover."
TN,East Tennessee State University,Johnson City,37614,"14,000","Washington County commercial property tax ~1.6%. Accessible via Johnson City Transit."
TN,Tennessee Technological University,Cookeville,38505,"10,000","Putnam County commercial property tax ~1.7%. Accessible via UCARTS."
TN,Austin Peay State University,Clarksville,37044,"10,000","Montgomery County commercial property tax ~1.9%. Accessible via CTS."
TN,University of Tennessee at Chattanooga,Chattanooga,37403,"11,000","Hamilton County commercial property tax ~2.1%. Accessible via CARTA."
TN,Tennessee State University,Nashville,37209,"8,000","Davidson County commercial property tax ~2.3%. Accessible via WeGo."
TN,University of Tennessee at Martin,Martin,38238,"7,000","Weakley County commercial property tax ~1.7%. Limited public transit."
TX,Texas A&M University,College Station,77843,"73,000","Brazos County commercial property tax ~1.8%. Accessible via The Bus."
TX,The University of Texas at Austin,Austin,78712,"52,000","Travis County commercial property tax ~2.0%. Accessible via CapMetro."
TX,University of Houston,Houston,77204,"47,000","Harris County commercial property tax ~2.2%. Accessible via METRO."
TX,The University of Texas at Arlington,Arlington,76019,"48,000","Tarrant County commercial property tax ~2.1%. Accessible via Arlington Transit."
TX,University of North Texas,Denton,76203,"42,000","Denton County commercial property tax ~1.9%. Accessible via DCTA."
TX,Texas State University,San Marcos,78666,"38,000","Hays County commercial property tax ~1.9%. Accessible via The Bus."
TX,The University of Texas at Dallas,Richardson,75080,"31,000","Dallas County commercial property tax ~2.2%. Accessible via DART."
TX,The University of Texas at San Antonio,San Antonio,78249,"34,000","Bexar County commercial property tax ~2.0%. Accessible via VIA."
TX,Texas Tech University,Lubbock,79409,"40,000","Lubbock County commercial property tax ~1.8%. Accessible via Citibus."
TX,The University of Texas at El Paso,El Paso,79968,"25,000","El Paso County commercial property tax ~2.3%. Accessible via Sun Metro."
TX,Sam Houston State University,Huntsville,77341,"21,000","Walker County commercial property tax ~1.7%. Accessible via Huntsville Shuttle."
TX,Stephen F. Austin State University,Nacogdoches,75962,"12,000","Nacogdoches County commercial property tax ~1.6%. Limited public transit."
TX,Texas Woman's University,Denton,76204,"16,000","Denton County commercial property tax ~1.9%. Accessible via DCTA."
TX,Prairie View A&M University,Prairie View,77446,"9,500","Waller County commercial property tax ~2.0%. Limited public transit."
TX,Tarleton State University,Stephenville,76402,"14,000","Erath County commercial property tax ~1.7%. Accessible via The Shuttle."
TX,West Texas A&M University,Canyon,79016,"10,000","Randall County commercial property tax ~1.7%. Limited public transit."
TX,Texas A&M University-Corpus Christi,Corpus Christi,78412,"11,000","Nueces County commercial property tax ~2.1%. Accessible via CCRTA."
TX,Texas Southern University,Houston,77004,"9,000","Harris County commercial property tax ~2.2%. Accessible via METRO."
TX,Lamar University,Beaumont,77710,"17,000","Jefferson County commercial property tax ~2.3%. Accessible via Beaumont Municipal Transit."
UT,University of Utah,Salt Lake City,84112,"34,000","Salt Lake County commercial property tax ~1.4%. Accessible via UTA."
UT,Utah State University,Logan,84322,"28,000","Cache County commercial property tax ~1.2%. Accessible via CVTD."
UT,Weber State University,Ogden,84408,"29,000","Weber County commercial property tax ~1.3%. Accessible via UTA."
UT,Utah Valley University,Orem,84058,"41,000","Utah County commercial property tax ~1.1%. Accessible via UTA."
UT,Southern Utah University,Cedar City,84720,"14,000","Iron County commercial property tax ~1.0%. Accessible via Cedar Area Transportation."
UT,Dixie State University,St. George,84770,"12,000","Washington County commercial property tax ~1.0%. Accessible via SunTran."
UT,Snow College,Ephraim,84627,"6,000","Sanpete County commercial property tax ~0.9%. Limited public transit."
UT,Salt Lake Community College,Salt Lake City,84130,"27,000","Salt Lake County commercial property tax ~1.4%. Accessible via UTA."
VT,University of Vermont,Burlington,05405,"13,000","Chittenden County commercial property tax ~1.8%. Accessible via GMT."
VT,Castleton University,Castleton,05735,"2,000","Rutland County commercial property tax ~1.9%. Accessible via The Bus."
VT,Northern Vermont University,Johnson,05656,"1,500","Lamoille County commercial property tax ~1.7%. Limited public transit."
VT,Northern Vermont University-Lyndon,Lyndonville,05851,"1,000","Caledonia County commercial property tax ~1.8%. Accessible via RCT."
VT,Vermont Technical College,Randolph Center,05061,"1,500","Orange County commercial property tax ~1.9%. Accessible via Stagecoach."
VA,Virginia Tech,Blacksburg,24061,"37,000","Montgomery County commercial property tax ~1.0%. Accessible via Blacksburg Transit."
VA,University of Virginia,Charlottesville,22904,"26,000","Albemarle County commercial property tax ~0.9%. Accessible via CAT."
VA,Virginia Commonwealth University,Richmond,23284,"30,000","Richmond City commercial property tax ~1.2%. Accessible via GRTC."
VA,George Mason University,Fairfax,22030,"39,000","Fairfax County commercial property tax ~1.1%. Accessible via CUE Bus, WMATA."
VA,Old Dominion University,Norfolk,23529,"24,000","Norfolk City commercial property tax ~1.3%. Accessible via HRT."
VA,James Madison University,Harrisonburg,22807,"22,000","Rockingham County commercial property tax ~0.8%. Accessible via Harrisonburg Transit."
VA,Radford University,Radford,24142,"11,000","Radford City commercial property tax ~1.0%. Accessible via Radford Transit."
VA,William & Mary,Williamsburg,23187,"9,000","Williamsburg City commercial property tax ~0.8%. Accessible via WATA."
VA,Virginia State University,Petersburg,23806,"4,000","Chesterfield County commercial property tax ~1.1%. Accessible via GRTC."
VA,Norfolk State University,Norfolk,23504,"5,000","Norfolk City commercial property tax ~1.3%. Accessible via HRT."
VA,Longwood University,Farmville,23909,"5,000","Prince Edward County commercial property tax ~0.7%. Accessible via Farmville Area Bus."
VA,University of Mary Washington,Fredericksburg,22401,"4,000","Fredericksburg City commercial property tax ~1.0%. Accessible via FRED."
VA,Christopher Newport University,Newport News,23606,"5,000","Newport News City commercial property tax ~1.2%. Accessible via HRT."
VA,University of Virginia's College at Wise,Wise,24293,"2,000","Wise County commercial property tax ~0.8%. Limited public transit."
WA,University of Washington,Seattle,98195,"49,000","King County commercial property tax ~1.0%. Accessible via King County Metro, Link Light Rail."
WA,Washington State University,Pullman,99164,"31,000","Whitman County commercial property tax ~1.2%. Accessible via Pullman Transit."
WA,Western Washington University,Bellingham,98225,"16,000","Whatcom County commercial property tax ~1.1%. Accessible via WTA."
WA,Central Washington University,Ellensburg,98926,"11,000","Kittitas County commercial property tax ~1.3%. Accessible via Central Transit."
WA,Eastern Washington University,Cheney,99004,"12,000","Spokane County commercial property tax ~1.3%. Accessible via STA."
WA,The Evergreen State College,Olympia,98505,"2,000","Thurston County commercial property tax ~1.2%. Accessible via Intercity Transit."
WV,West Virginia University,Morgantown,26506,"28,000","Monongalia County commercial property tax ~1.2%. Accessible via Mountain Line."
WV,Marshall University,Huntington,25755,"12,000","Cabell County commercial property tax ~1.3%. Accessible via TTA."
WV,Fairmont State University,Fairmont,26554,"3,500","Marion County commercial property tax ~1.1%. Accessible via MCT."
WV,Shepherd University,Shepherdstown,25443,"3,000","Jefferson County commercial property tax ~0.9%. Accessible via EPTA."
WV,West Liberty University,West Liberty,26074,"2,500","Ohio County commercial property tax ~1.2%. Accessible via OVRTA."
WV,Concord University,Athens,24712,"2,000","Mercer County commercial property tax ~1.0%. Accessible via BCT."
WV,West Virginia State University,Institute,25112,"3,000","Kanawha County commercial property tax ~1.4%. Accessible via KRT."
WV,Glenville State College,Glenville,26351,"1,500","Gilmer County commercial property tax ~1.0%. Limited public transit."
WV,Bluefield State College,Bluefield,24701,"1,500","Mercer County commercial property tax ~1.0%. Accessible via BCT."
WI,University of Wisconsin-Madison,Madison,53706,"48,000","Dane County commercial property tax ~2.2%. Accessible via Madison Metro."
WI,University of Wisconsin-Milwaukee,Milwaukee,53211,"24,000","Milwaukee County commercial property tax ~2.8%. Accessible via MCTS."
WI,University of Wisconsin-Oshkosh,Oshkosh,54901,"14,000","Winnebago County commercial property tax ~2.0%. Accessible via GO Transit."
WI,University of Wisconsin-Whitewater,Whitewater,53190,"12,000","Walworth County commercial property tax ~1.8%. Accessible via Whitewater Transit."
WI,University of Wisconsin-La Crosse,La Crosse,54601,"10,000","La Crosse County commercial property tax ~2.1%. Accessible via MTU."
WI,University of Wisconsin-Eau Claire,Eau Claire,54701,"10,000","Eau Claire County commercial property tax ~2.0%. Accessible via Eau Claire Transit."
WI,University of Wisconsin-Green Bay,Green Bay,54311,"9,000","Brown County commercial property tax ~2.1%. Accessible via Green Bay Metro."
WI,University of Wisconsin-Stout,Menomonie,54751,"8,000","Dunn County commercial property tax ~1.9%. Accessible via Dunn County Transit."
WI,University of Wisconsin-Platteville,Platteville,53818,"7,000","Grant County commercial property tax ~1.8%. Accessible via Platteville Public Transit."
WI,University of Wisconsin-River Falls,River Falls,54022,"6,000","Pierce County commercial property tax ~1.7%. Limited public transit."
WI,University of Wisconsin-Stevens Point,Stevens Point,54481,"8,000","Portage County commercial property tax ~2.0%. Accessible via Stevens Point Transit."
WI,University of Wisconsin-Superior,Superior,54880,"2,500","Douglas County commercial property tax ~2.2%. Accessible via DTA."
WI,University of Wisconsin-Parkside,Kenosha,53144,"4,000","Kenosha County commercial property tax ~2.4%. Accessible via Kenosha Area Transit."
WY,University of Wyoming,Laramie,82071,"12,000","Albany County commercial property tax ~1.0%. Accessible via UWYO Roundup."
